NORAD_CAT_ID,OBJECT_NAME,OBJECT_TYPE,EPOCH,MEAN_MOTION,ECCENTRICITY,INCLINATION,RA_OF_ASC_NODE,ARG_OF_PERICENTER,MEAN_ANOMALY,BSTAR,MEAN_MOTION_DOT,MEAN_MOTION_DDOT,TLE_LINE0,TLE_LINE1,TLE_LINE2,SEMIMAJOR_AXIS,PERIOD,APOGEE,PERIGEE,DECAYED
51106.0,STARLINK-3176,PAYLOAD,2022-10-14 14:58:41,15.08846213,0.0002205,53.2152,104.9556,39.4372,320.6781,1.2388e-05,-9.1e-07,0.0,0 STARLINK-3176,1 51106U 22005C   22287.62409508 -.00000091  00000-0  12388-4 0  9994,2 51106  53.2152 104.9556 0002205  39.4372 320.6781 15.08846213 41369,6917.861,95.437,541.252,538.201,0.0
51106.0,STARLINK-3176,PAYLOAD,2022-10-14 21:20:14,15.08839987,0.0002243,53.2153,103.7663,44.3974,315.7198,7.183e-05,8.55e-06,0.0,0 STARLINK-3176,1 51106U 22005C   22287.88905900  .00000855  00000-0  71830-4 0  9993,2 51106  53.2153 103.7663 0002243  44.3974 315.7198 15.08839987 42516,6917.88,95.438,541.297,538.194,0.0
51106.0,STARLINK-3176,PAYLOAD,2022-10-15 11:38:42,15.08846472,0.000225,53.2156,101.09,44.4526,315.6647,0.00019737,2.855e-05,0.0,0 STARLINK-3176,1 51106U 22005C   22288.48521537  .00002855  00000-0  19737-3 0  9999,2 51106  53.2156 101.0900 0002250  44.4526 315.6647 15.08846472 41497,6917.861,95.437,541.2819999999998,538.169,0.0
51106.0,STARLINK-3176,PAYLOAD,2022-10-15 18:00:15,15.08840828,0.0002218999999999,53.2159,99.9003,44.3327,315.7842,1.3326e-05,-7.6e-07,0.0,0 STARLINK-3176,1 51106U 22005C   22288.75017776 -.00000076  00000-0  13326-4 0  9997,2 51106  53.2159  99.9003 0002219  44.3327 315.7842 15.08840828 41534,6917.878000000002,95.438,541.278,538.2080000000002,0.0
51106.0,STARLINK-3176,PAYLOAD,2022-10-16 11:29:30,15.08841656,0.0002427,53.2162,96.6314,43.1812,316.937,-1.5842000000000002e-05,-5.41e-06,0.0,0 STARLINK-3176,1 51106U 22005C   22289.47881951 -.00000541  00000-0 -15842-4 0  9994,2 51106  53.2162  96.6314 0002427  43.1812 316.9370 15.08841656 42758,6917.875,95.437,541.419,538.061,0.0
51106.0,STARLINK-3176,PAYLOAD,2022-10-16 17:51:02,15.08839404,0.0002244,53.2165,95.4406,43.5492,316.5677,-1.8397e-05,-5.81e-06,0.0,0 STARLINK-3176,1 51106U 22005C   22289.74378018 -.00000581  00000-0 -18397-4 0  9991,2 51106  53.2165  95.4406 0002244  43.5492 316.5677 15.08839404 41680,6917.882,95.438,541.3,538.195,0.0
51106.0,STARLINK-3176,PAYLOAD,2022-10-17 11:20:16,15.08850643,0.0002296999999999,53.2166,92.1698,43.3142,316.803,4.8512e-06,-2.11e-06,0.0,0 STARLINK-3176,1 51106U 22005C   22290.47241254 -.00000211  00000-0  48512-5 0  9996,2 51106  53.2166  92.1698 0002297  43.3142 316.8030 15.08850643 42906,6917.848000000001,95.437,541.302,538.124,0.0
51106.0,STARLINK-3176,PAYLOAD,2022-10-17 16:06:25,15.08847611,0.0002301,53.2169,91.2781,42.6077,317.5093,6.2352e-05,7.04e-06,0.0,0 STARLINK-3176,1 51106U 22005C   22290.67113233  .00000704  00000-0  62352-4 0  9996,2 51106  53.2169  91.2781 0002301  42.6077 317.5093 15.08847611 41825,6917.857,95.437,541.314,538.13,0.0
51106.0,STARLINK-3176,PAYLOAD,2022-10-18 03:14:08,15.08841751,0.0002182,53.2164,89.1957,47.38,312.7376,9.2572e-05,1.185e-05,0.0,0 STARLINK-3176,1 51106U 22005C   22291.13481510  .00001185  00000-0  92572-4 0  9995,2 51106  53.2164  89.1957 0002182  47.3800 312.7376 15.08841751 43006,6917.875,95.437,541.25,538.231,0.0
51106.0,STARLINK-3176,PAYLOAD,2022-10-18 11:11:04,15.08837333,0.000216,53.2169,87.7092,42.2763,317.8395,0.00016308,2.308e-05,0.0,0 STARLINK-3176,1 51106U 22005C   22291.46601960  .00002308  00000-0  16308-3 0  9994,2 51106  53.2169  87.7092 0002160  42.2763 317.8395 15.08837333 41942,6917.889,95.438,541.248,538.259,0.0
51106.0,STARLINK-3176,PAYLOAD,2022-10-18 17:32:36,15.08840579,0.0002275999999999,53.216,86.5197,43.3332,316.7839,0.00013868,1.92e-05,0.0,0 STARLINK-3176,1 51106U 22005C   22291.73097886  .00001920  00000-0  13868-3 0  9997,2 51106  53.2160  86.5197 0002276  43.3332 316.7839 15.08840579 41989,6917.879,95.438,541.318,538.169,0.0
51106.0,STARLINK-3176,PAYLOAD,2022-10-19 06:15:42,15.08834271,0.0002301,53.2162,84.1413,42.6904,317.4267,-7.0842e-05,-1.415e-05,0.0,0 STARLINK-3176,1 51106U 22005C   22292.26090305 -.00001415  00000-0 -70842-4 0  9992,2 51106  53.2162  84.1413 0002301  42.6904 317.4267 15.08834271 43170,6917.898,95.438,541.355,538.1709999999998,0.0
51106.0,STARLINK-3176,PAYLOAD,2022-10-19 12:37:14,15.08839013,0.0002395,53.2159,82.9515,41.957,318.1606,-6.6685000000000015e-06,-3.95e-06,0.0,0 STARLINK-3176,1 51106U 22005C   22292.52586120 -.00000395  00000-0 -66685-5 0  9993,2 51106  53.2159  82.9515 0002395  41.9570 318.1606 15.08839013 42105,6917.8830000000025,95.438,541.405,538.092,0.0
51106.0,STARLINK-3176,PAYLOAD,2022-10-20 04:31:05,15.08846721,0.0002208,53.2184,79.9787,30.0009,330.1109,0.00014427,2.009e-05,0.0,0 STARLINK-3176,1 51106U 22005C   22293.18825735  .00002009  00000-0  14427-3 0  9991,2 51106  53.2184  79.9787 0002208  30.0009 330.1109 15.08846721 43319,6917.86,95.437,541.252,538.197,0.0
51106.0,STARLINK-3176,PAYLOAD,2022-10-20 12:28:01,15.08840587,0.0002215999999999,53.2177,78.4916,27.4213,332.6896,4.8272e-05,4.8e-06,0.0,0 STARLINK-3176,1 51106U 22005C   22293.51945923  .00000480  00000-0  48272-4 0  9997,2 51106  53.2177  78.4916 0002216  27.4213 332.6896 15.08840587 42251,6917.879,95.438,541.2769999999998,538.211,0.0
51106.0,STARLINK-3176,PAYLOAD,2022-10-20 18:49:33,15.08843097,0.0002304,53.2177,77.3021,21.3573,338.7514,7.1421000000000015e-06,-1.75e-06,0.0,0 STARLINK-3176,1 51106U 22005C   22293.78441778 -.00000175  00000-0  71421-5 0  9990,2 51106  53.2177  77.3021 0002304  21.3573 338.7514 15.08843097 42293,6917.871,95.437,541.33,538.1419999999998,0.0
51106.0,STARLINK-3176,PAYLOAD,2022-10-21 04:21:52,15.08843214,0.0002204,53.2169,75.5168,34.3619,325.7516,0.00013708,1.894e-05,0.0,0 STARLINK-3176,1 51106U 22005C   22294.18185753  .00001894  00000-0  13708-3 0  9993,2 51106  53.2169  75.5168 0002204  34.3619 325.7516 15.08843214 43469,6917.871,95.437,541.26,538.211,0.0
51106.0,STARLINK-3176,PAYLOAD,2022-10-21 07:32:38,15.08843816,0.0001899,53.2167,74.9215,47.4069,312.7083,-3.1685e-05,-7.92e-06,0.0,0 STARLINK-3176,1 51106U 22005C   22294.31433653 -.00000792  00000-0 -31685-4 0  9996,2 51106  53.2167  74.9215 0001899  47.4069 312.7083 15.08843816 42378,6917.869000000002,95.437,541.047,538.42,0.0
51106.0,STARLINK-3176,PAYLOAD,2022-10-21 12:18:48,15.08837,0.0002077,53.2178,74.0294,37.5347,322.579,4.5127e-05,4.3e-06,0.0,0 STARLINK-3176,1 51106U 22005C   22294.51306420  .00000430  00000-0  45127-4 0  9992,2 51106  53.2178  74.0294 0002077  37.5347 322.5790 15.08837000 42402,6917.89,95.438,541.191,538.318,0.0
51106.0,STARLINK-3176,PAYLOAD,2022-10-22 02:37:16,15.08842694,0.0002205,53.2177,71.3535,37.4386,322.6759,0.00012349,1.678e-05,0.0,0 STARLINK-3176,1 51106U 22005C   22295.10921846  .00001678  00000-0  12349-3 0  9997,2 51106  53.2177  71.3535 0002205  37.4386 322.6759 15.08842694 43608,6917.871999999999,95.437,541.263,538.212,0.0
51106.0,STARLINK-3176,PAYLOAD,2022-10-22 12:09:35,15.08839507,0.0002177,53.2173,69.5689,40.8658,319.2497,9.4957e-05,1.223e-05,0.0,0 STARLINK-3176,1 51106U 22005C   22295.50666220  .00001223  00000-0  94957-4 0  9995,2 51106  53.2173  69.5689 0002177  40.8658 319.2497 15.08839507 42554,6917.882,95.438,541.253,538.241,0.0
51106.0,STARLINK-3176,PAYLOAD,2022-10-22 20:06:30,15.08844477,0.000218,53.2178,68.0831,37.7157,322.3988,9.059e-05,1.154e-05,0.0,0 STARLINK-3176,1 51106U 22005C   22295.83785850  .00001154  00000-0  90590-4 0  9994,2 51106  53.2178  68.0831 0002180  37.7157 322.3988 15.08844477 42603,6917.8669999999975,95.437,541.24,538.224,0.0
51106.0,STARLINK-3176,PAYLOAD,2022-10-23 04:03:25,15.08855711,0.0002185,53.2178,66.5963,37.036,323.0783,0.00015957,2.253e-05,0.0,0 STARLINK-3176,1 51106U 22005C   22296.16904870  .00002253  00000-0  15957-3 0  9990,2 51106  53.2178  66.5963 0002185  37.0360 323.0783 15.08855711 43768,6917.831999999999,95.437,541.2090000000002,538.186,0.0
51106.0,STARLINK-3176,PAYLOAD,2022-10-23 12:00:22,15.08849694,0.0002353,53.2168,65.1097,35.2476,324.8671,0.00014308,1.99e-05,0.0,0 STARLINK-3176,1 51106U 22005C   22296.50025568  .00001990  00000-0  14308-3 0  9992,2 51106  53.2168  65.1097 0002353  35.2476 324.8671 15.08849694 42706,6917.851,95.437,541.344,538.0880000000002,0.0
51106.0,STARLINK-3176,PAYLOAD,2022-10-23 18:21:54,15.08846895,0.0002265,53.2167,63.92,35.8185,324.2958,0.00020317,2.947e-05,0.0,0 STARLINK-3176,1 51106U 22005C   22296.76521608  .00002947  00000-0  20317-3 0  9996,2 51106  53.2167  63.9200 0002265  35.8185 324.2958 15.08846895 42748,6917.859,95.437,541.2909999999998,538.1569999999998,0.0
51106.0,STARLINK-3176,PAYLOAD,2022-10-24 10:15:46,15.08842553,0.0002234,53.2169,60.9455,36.6544,323.4601,0.0001087,1.442e-05,0.0,0 STARLINK-3176,1 51106U 22005C   22297.42761639  .00001442  00000-0  10870-3 0  9992,2 51106  53.2169  60.9455 0002234  36.6544 323.4601 15.08842553 42847,6917.873000000001,95.437,541.283,538.192,0.0
51106.0,STARLINK-3176,PAYLOAD,2022-10-24 15:01:55,15.08831274,0.0002143,53.2178,60.0549,33.4859,326.6268,-8.3312e-05,-1.614e-05,0.0,0 STARLINK-3176,1 51106U 22005C   22297.62634206 -.00001614  00000-0 -83312-4 0  9998,2 51106  53.2178  60.0549 0002143  33.4859 326.6268 15.08831274 43983,6917.906999999997,95.438,541.255,538.29,0.0
51106.0,STARLINK-3176,PAYLOAD,2022-10-25 11:41:57,15.08835306,0.0002254,53.2177,56.18899999999999,33.3663,326.7471,6.8827e-05,8.07e-06,0.0,0 STARLINK-3176,1 51106U 22005C   22298.48746721  .00000807  00000-0  68827-4 0  9994,2 51106  53.2177  56.1890 0002254  33.3663 326.7471 15.08835306 43002,6917.895,95.438,541.319,538.2,0.0
51106.0,STARLINK-3176,PAYLOAD,2022-10-25 18:03:29,15.0883862,0.0002327,53.2177,55.0,31.143,328.97,0.00059159,9.139e-05,0.0,0 STARLINK-3176,1 51106U 22005C   22298.75243039  .00009139  00000-0  59159-3 0  9992,2 51106  53.2177  55.0000 0002327  31.1430 328.9700 15.08838620 44150,6917.885,95.438,541.359,538.14,0.0
